{"type": "FeatureCollection", "features": [{"type": "Feature", "id": "0", "properties": {"name": "McDonald-Dunn Research Forest"}, "geometry": {"type": "Polygon", "coordinates": [[[-123.32262, 44.60311], [-123.34313, 44.60315], [-123.34313, 44.60683], [-123.3483, 44.60691], [-123.34831, 44.61427], [-123.34313, 44.61414], [-123.34313, 44.61788], [-123.3535, 44.61808], [-123.35336, 44.65091], [-123.32231, 44.65079], [-123.32218, 44.64319], [-123.32398, 44.64308], [-123.32218, 44.64319], [-123.32211, 44.63951], [-123.31714, 44.63949], [-123.31719, 44.64313], [-123.28659, 44.64314], [-123.28657, 44.64673], [-123.28164, 44.64674], [-123.28162, 44.65067], [-123.28053, 44.65067], [-123.28058, 44.65423], [-123.27552, 44.65422], [-123.27557, 44.65784], [-123.26544, 44.65795], [-123.26563, 44.66355], [-123.26125, 44.6636], [-123.2614, 44.66893], [-123.26706, 44.66891], [-123.26797, 44.67006], [-123.26718, 44.67034], [-123.26818, 44.67136], [-123.27116, 44.67028], [-123.27217, 44.66963], [-123.27533, 44.66596], [-123.27785, 44.66712], [-123.29239, 44.66713], [-123.29635, 44.66771], [-123.29605, 44.67972], [-123.31631, 44.6798], [-123.31674, 44.70288], [-123.32792, 44.70106], [-123.33059, 44.70429], [-123.32697, 44.70605], [-123.32701, 44.70857], [-123.33723, 44.70857], [-123.33716, 44.71582], [-123.34722, 44.71581], [-123.34722, 44.72019], [-123.33692, 44.72022], [-123.33687, 44.72963], [-123.33288, 44.73043], [-123.32702, 44.73041], [-123.32703, 44.72998], [-123.31769, 44.7301], [-123.31139, 44.72364], [-123.30539, 44.72687], [-123.30474, 44.72604], [-123.30324, 44.72345], [-123.30196, 44.72009], [-123.29679, 44.71069], [-123.29598, 44.70958], [-123.29504, 44.70881], [-123.28631, 44.70422], [-123.27874, 44.70172], [-123.27487, 44.69942], [-123.27381, 44.69901], [-123.26417, 44.69709], [-123.26107, 44.69692], [-123.25329, 44.69591], [-123.24882, 44.69279], [-123.23977, 44.68531], [-123.23783, 44.68338], [-123.23616, 44.68106], [-123.23223, 44.67764], [-123.23718, 44.67765], [-123.2382, 44.67859], [-123.23706, 44.67918], [-123.24191, 44.6842], [-123.24838, 44.6804], [-123.25136, 44.67976], [-123.25542, 44.67818], [-123.25737, 44.678], [-123.2579, 44.67781], [-123.25928, 44.67692], [-123.26053, 44.67472], [-123.25936, 44.6741], [-123.25815, 44.67437], [-123.25659, 44.67718], [-123.25534, 44.67604], [-123.25533, 44.67235], [-123.24513, 44.67255], [-123.22391, 44.67233], [-123.22255, 44.66587], [-123.22987, 44.66587], [-123.22987, 44.66104], [-123.2302, 44.66103], [-123.23, 44.65712], [-123.22683, 44.6571], [-123.23004, 44.65464], [-123.23491, 44.65464], [-123.23492, 44.65191], [-123.25525, 44.65211], [-123.25525, 44.65061], [-123.26132, 44.65064], [-123.26132, 44.64966], [-123.26224, 44.64966], [-123.26224, 44.64698], [-123.27148, 44.64689], [-123.27145, 44.63922], [-123.28174, 44.63916], [-123.28164, 44.63287], [-123.28304, 44.63279], [-123.28382, 44.63327], [-123.28388, 44.6326], [-123.28492, 44.63256], [-123.28489, 44.63214], [-123.29188, 44.63209], [-123.29185, 44.62843], [-123.29698, 44.62847], [-123.29703, 44.62125], [-123.29181, 44.62116], [-123.29179, 44.61685], [-123.28719, 44.61686], [-123.28753, 44.60667], [-123.30209, 44.6067], [-123.3021, 44.61217], [-123.30724, 44.61221], [-123.30724, 44.61403], [-123.32265, 44.61398], [-123.32262, 44.60311]], [[-123.32185, 44.63586], [-123.32742, 44.63589], [-123.32748, 44.63224], [-123.33255, 44.63224], [-123.33255, 44.63198], [-123.33277, 44.63202], [-123.33304, 44.63215], [-123.33338, 44.63228], [-123.33369, 44.63238], [-123.33277, 44.63202], [-123.33255, 44.63198], [-123.33258, 44.62858], [-123.3145, 44.6286], [-123.31407, 44.62773], [-123.31396, 44.62755], [-123.31384, 44.62737], [-123.31343, 44.62689], [-123.31336, 44.62674], [-123.31327, 44.62659], [-123.31321, 44.62644], [-123.3131, 44.62628], [-123.31321, 44.62644], [-123.31327, 44.62659], [-123.31343, 44.62689], [-123.31407, 44.62773], [-123.3145, 44.6286], [-123.3123, 44.62859], [-123.31222, 44.63219], [-123.30715, 44.63217], [-123.30708, 44.6358], [-123.32185, 44.63586], [-123.32227, 44.63645], [-123.32185, 44.63586]]]}}]}