{
  "type": "FeatureCollection",
  "features": [
    {
      "type": "Feature",
      "id": "0",
      "properties": { "name": "Beazell Memorial Forest" },
      "geometry": {
        "type": "Polygon",
        "coordinates": [
          [
            [-123.42711726231977, 44.654143179464945],
            [-123.42711726231977, 44.645777807167846],
            [-123.41149607701703, 44.645777807167846],
            [-123.41149607701703, 44.654143179464945],
            [-123.42711726231977, 44.654143179464945]
          ]
        ]
      }
    }
  ]
}
