{"type":"FeatureCollection","crs":{"type":"name","properties":{"name":"EPSG:4326"}},"features":[{"type":"Feature","id":1,"geometry":{"type":"Polygon","coordinates":[[[-122.14154514202,44.2800240189415],[-122.140739739628,44.2795002603391],[-122.14065900694,44.2795041527126],[-122.140176001822,44.2792709241546],[-122.14003849579,44.2791933586412],[-122.139950002509,44.2791386705168],[-122.139370550888,44.2788056752453],[-122.138967446218,44.2785190270862],[-122.138234781807,44.2780588229852],[-122.138063218255,44.2779539880979],[-122.138017405917,44.2779266323589],[-122.13775976666,44.2777626240362],[-122.137679103289,44.2777620124065],[-122.137276722765,44.2775338834862],[-122.137099678097,44.2774290048446],[-122.137050735378,44.2774016250675],[-122.136873626857,44.2773012480134],[-122.136793035217,44.2772421156131],[-122.136471391185,44.2770100951234],[-122.135687497909,44.2763604224276],[-122.13564723819,44.2763286044234],[-122.135424400438,44.2761423474217],[-122.135424472832,44.2760838290721],[-122.135263306238,44.275911544897],[-122.135021552849,44.2756801268619],[-122.134860455809,44.2755033420109],[-122.134686628288,44.2753399650585],[-122.134619487478,44.2752719308564],[-122.134216879097,44.2746341497727],[-122.133975520556,44.2740561150968],[-122.133936537384,44.2738307415012],[-122.133925780427,44.2737631361702],[-122.133896182931,44.2735918529116],[-122.133815534456,44.2735372194698],[-122.133574641856,44.2726080674914],[-122.132932217065,44.2707575408433],[-122.132932367911,44.2706405013857],[-122.132934005435,44.2692495372873],[-122.132934092558,44.2691369988438],[-122.132982924831,44.2690113276212],[-122.133095147247,44.2687285857926],[-122.133337407447,44.2684963527709],[-122.133453655715,44.2683126747453],[-122.133557175639,44.2681424046335],[-122.133660628842,44.2679766354457],[-122.13374073293,44.2677476667764],[-122.134980646886,44.2660195078166],[-122.135112545677,44.2658359474396],[-122.135167559209,44.2657688428136],[-122.135435655573,44.2654287640773],[-122.135516530897,44.265199798995],[-122.13556848,44.2651281694443],[-122.136000372142,44.2645642567072],[-122.136148784718,44.2642682816925],[-122.136210069669,44.2641472073884],[-122.136323693224,44.2639274932893],[-122.136434681968,44.2634061555612],[-122.136448913144,44.2633432425917],[-122.136485081987,44.2631724586752],[-122.136565800199,44.2631145516272],[-122.136809274586,44.2617254215348],[-122.13700176456,44.2610381457439],[-122.137017494514,44.2609797437352],[-122.137051370076,44.2608584600255],[-122.137173933378,44.2605622872957],[-122.137195860359,44.2605084354033],[-122.137267322576,44.2603334171022],[-122.137405350927,44.2599968479824],[-122.137455664554,44.2598756873649],[-122.137858725011,44.2593520631731],[-122.138180930008,44.2589493644731],[-122.138503768193,44.2587177306987],[-122.138342704942,44.2585409496142],[-122.137779032389,44.2584286413067],[-122.137285762664,44.2582673450646],[-122.137054296602,44.2581935639459],[-122.136571333483,44.2580773596461],[-122.135846686854,44.2577297377588],[-122.135524442203,44.2574391884415],[-122.135202280594,44.2570361021909],[-122.134961988432,44.2562825150638],[-122.134720548077,44.2558215195535],[-122.134318233799,44.2557599386514],[-122.134076416197,44.2556455573715],[-122.133915231152,44.2555317914793],[-122.133915305966,44.2554732720422],[-122.131984128006,44.2539055118512],[-122.13182318484,44.2536161838494],[-122.131724502793,44.2535118947478],[-122.131662087953,44.2534438944878],[-122.131421222287,44.2532124765325],[-122.131260127679,44.25304018571],[-122.131018482444,44.2528087600614],[-122.130880279723,44.2526771585094],[-122.130840883894,44.2526408455223],[-122.1303164446,44.2521551700093],[-122.130277767178,44.2521233629356],[-122.12996112494,44.2518283405822],[-122.129892385282,44.2517647927037],[-122.129731285273,44.2516465190445],[-122.129731299059,44.2515924997494],[-122.128121999022,44.2500856560385],[-122.127982986784,44.2498505083579],[-122.127236642311,44.2493901172843],[-122.126753623045,44.2487516765422],[-122.126592888422,44.247652039341],[-122.126593795104,44.246261035508],[-122.126675058986,44.2457394676142],[-122.126754974909,44.2456815602865],[-122.126835844357,44.2454525960311],[-122.127561268915,44.244350757549],[-122.127722599539,44.2436002186022],[-122.127722753588,44.2434831759336],[-122.127642615436,44.2430774120158],[-122.127320561227,44.2426742935123],[-122.127078879517,44.2425013762943],[-122.126354539234,44.2420951665598],[-122.126188612052,44.2420938928753],[-122.126188930804,44.2421254070562],[-122.122491311464,44.2419033650549],[-122.122098528334,44.2417337716483],[-122.118018248236,44.2414546120292],[-122.116291713023,44.2412296320562],[-122.115742420322,44.241058801349],[-122.112994483433,44.2392592486231],[-122.112916217296,44.2392586381376],[-122.112601743046,44.2390896246311],[-122.112366289421,44.2389752447438],[-122.111659892626,44.2385825884184],[-122.109697611568,44.2379055010235],[-122.108677668996,44.2372852881462],[-122.108284425473,44.2368905614224],[-122.107656069198,44.2360483251321],[-122.107420237702,44.2355963092576],[-122.106633880501,44.2333978276358],[-122.10647536677,44.2317624799116],[-122.106553718123,44.2317045743423],[-122.106632199183,44.2315341272231],[-122.106789061094,44.231251754961],[-122.106944997604,44.2304066661972],[-122.107101628801,44.2302953553293],[-122.106943776082,44.2294478032616],[-122.106080638886,44.2287162550349],[-122.105843836923,44.2277600414398],[-122.105765687184,44.2277009057998],[-122.106155876886,44.2253315942641],[-122.106076880712,44.2252769537516],[-122.105998765349,44.2251637979806],[-122.105840874118,44.224320745817],[-122.105762730143,44.2242616092871],[-122.105918400048,44.2229663544393],[-122.105839083683,44.2225695834328],[-122.105604033806,44.2221220704762],[-122.10458310931,44.2212767282002],[-122.104269089228,44.2208781078539],[-122.10411198255,44.2200890785316],[-122.104032995208,44.22003443753],[-122.103954891793,44.2199212812583],[-122.103796618535,44.2181733861087],[-122.103402670661,44.2165406759915],[-122.10308844618,44.2163131154754],[-122.102852896769,44.2156945292744],[-122.10277313236,44.2143974176044],[-122.10269500568,44.2143382808189],[-122.102459365171,44.2137782132965],[-122.102223765291,44.2132676655304],[-122.101909501371,44.212423371747],[-122.10190899304,44.2121982837953],[-122.101987323829,44.2121403800924],[-122.102143545046,44.2116914455747],[-122.102613615965,44.2111819638324],[-122.103318625108,44.2104492486457],[-122.103475310039,44.2102794196248],[-122.104885652594,44.209151601688],[-122.105277748839,44.2090376424986],[-122.106217720385,44.2080231509643],[-122.106608314295,44.2065001490838],[-122.10676488079,44.2063888367858],[-122.106843484088,44.206051828708],[-122.107078493325,44.2057700666829],[-122.10715690472,44.2056536386013],[-122.108253126747,44.204698876763],[-122.108801714851,44.2045276100238],[-122.109193772929,44.2044136378845],[-122.109585828275,44.2042996634748],[-122.109977033458,44.2041901826701],[-122.11052639535,44.2040189136562],[-122.110917663426,44.2039049285344],[-122.111309644467,44.2037954500942],[-122.111701692981,44.2036814683523],[-122.112093738762,44.2035674843402],[-122.11225026188,44.2035101839602],[-122.114759016999,44.2033991867926],[-122.114837208998,44.2034538143634],[-122.116954665957,44.2035648069792],[-122.11703279299,44.2036239341223],[-122.119463397477,44.2035077261343],[-122.12126635295,44.2036747246965],[-122.121345266616,44.2037338558423],[-122.123932798592,44.2039563897924],[-122.126184925798,44.203901684733],[-122.126185178108,44.2039377010909],[-122.1275023214,44.204055851047],[-122.127978319208,44.2041360305734],[-122.128548761989,44.2042304351972],[-122.129273419246,44.2039973955584],[-122.13136591011,44.2039998892144],[-122.131607446267,44.2041727982323],[-122.131768574291,44.2041740284283],[-122.131849063553,44.2042331633919],[-122.132250310209,44.2042902463921],[-122.132404851041,44.2043139326424],[-122.13249773277,44.2043281463865],[-122.132977000529,44.2043993267569],[-122.1340161647,44.2045918118975],[-122.134182894399,44.2046380978358],[-122.134504433224,44.2046360428219],[-122.135712246177,44.2045822034091],[-122.135856497076,44.204506770611],[-122.136039336351,44.2044136249777],[-122.136275819424,44.2042893727248],[-122.136446072731,44.2042546517914],[-122.136913686698,44.2041591637376],[-122.137157658576,44.2041114966731],[-122.137402479182,44.2040593321165],[-122.137714894561,44.2039311531623],[-122.13796590854,44.2038295167794],[-122.138458023449,44.2036081612709],[-122.138609961247,44.2035417870135],[-122.138790509914,44.2034441163044],[-122.138931689894,44.203364154873],[-122.139173442858,44.2033074627087],[-122.140139473529,44.2033102683955],[-122.14062200283,44.2034264570424],[-122.141105254157,44.2036551912585],[-122.141346816477,44.2037740582499],[-122.141742404373,44.2039526107077],[-122.142231985658,44.2041768870202],[-122.142629924167,44.204355454045],[-122.142875468499,44.2044698461003],[-122.143197605509,44.2046433371643],[-122.143841344693,44.2047562250724],[-122.144244228813,44.2047007351498],[-122.144555848405,44.2045725306301],[-122.14480763575,44.2044708850093],[-122.145290599234,44.2041774045016],[-122.145853998426,44.2039475482164],[-122.146095081543,44.203773792637],[-122.146738983449,44.2036570786011],[-122.146882372343,44.2035861278989],[-122.147624850729,44.203195546866],[-122.149073705156,44.2030218245244],[-122.149395014515,44.2032538143289],[-122.14947557765,44.2032544169013],[-122.149878289863,44.2034284926707],[-122.150370310644,44.2036482498054],[-122.150521867854,44.2037169078506],[-122.150843916643,44.2040074204845],[-122.151648738991,44.2041799885573],[-122.152453357347,44.2045866378471],[-122.153258181527,44.2047051747358],[-122.154143736714,44.2047027611494],[-122.154868285224,44.2044155375393],[-122.155113808595,44.2043678426929],[-122.156075504102,44.2041814107085],[-122.156477719877,44.2038962858318],[-122.157122292395,44.203896563774],[-122.157202119096,44.203838632228],[-122.157766268016,44.2036627443351],[-122.157926660041,44.2036054107647],[-122.160905250081,44.2038975264305],[-122.160985073116,44.203839592212],[-122.161146307346,44.2037777587269],[-122.162040541637,44.2033251788434],[-122.162514828302,44.2030855798149],[-122.163078172458,44.2029096588511],[-122.163722011075,44.2027388296034],[-122.164043580155,44.2026781701969],[-122.164200115269,44.2026162961964],[-122.164607674317,44.2024482263908],[-122.165099680839,44.2022267560965],[-122.165250801069,44.2021603385922],[-122.165573163046,44.2019871375335],[-122.166136487796,44.2018112022018],[-122.166780304582,44.201640354613],[-122.166941463421,44.2015830130497],[-122.168067838087,44.2016407770156],[-122.1687927583,44.2020467291533],[-122.16975854163,44.2027380406259],[-122.170160530268,44.2029120387629],[-122.170563235567,44.2032030853798],[-122.170563201634,44.2032616074801],[-122.170724289386,44.2034338469823],[-122.170804784574,44.2035514778049],[-122.171207525968,44.2038965413434],[-122.171288089179,44.203897128531],[-122.171770584498,44.2043012954637],[-122.172092775435,44.2045332277983],[-122.172092741757,44.2045917489879],[-122.172315472957,44.2048319602524],[-122.172476505796,44.2050086984221],[-122.172637603862,44.205180934353],[-122.172798701586,44.20535317185],[-122.172959738528,44.2055299093536],[-122.173120836907,44.2057021445909],[-122.173219518964,44.2058064005799],[-122.173461220291,44.2058081578023],[-122.173863960284,44.2060991929031],[-122.174025153918,44.2059833193225],[-122.175232217139,44.2059830773176],[-122.175554547014,44.2059809115528],[-122.175635084188,44.2060400187086],[-122.177083791304,44.2061585507733],[-122.177164394189,44.2062131548444],[-122.177411917652,44.2062464575939],[-122.178451948109,44.2063890264363],[-122.178613094667,44.2065027328393],[-122.17877661176,44.2065579346389],[-122.179498552985,44.2067927317627],[-122.179642989159,44.2068703022536],[-122.179825568477,44.2069616529665],[-122.180061685429,44.2070849023304],[-122.18078207388,44.2073196801794],[-122.180947160939,44.207374891025],[-122.181426616155,44.2074953867874],[-122.182074413231,44.2076621090045],[-122.182307309222,44.2077358105998],[-122.18247245993,44.2077865163155],[-122.182637610924,44.2078372217942],[-122.184642363377,44.2083152887021],[-122.184811552992,44.2083570176072],[-122.186340968641,44.2084715110944],[-122.186577064085,44.2085407251891],[-122.186743066195,44.208586929211],[-122.186984777222,44.2085886569881],[-122.187387640449,44.2087626023827],[-122.187879847173,44.2089821991342],[-122.188031462271,44.2090508077799],[-122.188849105331,44.2094437883196],[-122.188997532048,44.2095168746141],[-122.189481010239,44.2098039279134],[-122.189721929096,44.2098641674677],[-122.190044281431,44.2098619627815],[-122.191339889257,44.2106049608724],[-122.191493078336,44.2106735751494],[-122.191899171424,44.2107845026854],[-122.192137689781,44.2108492208299],[-122.192218276747,44.2107912711461],[-122.193908149986,44.2108482809664],[-122.194069357674,44.2108449213654],[-122.194149920125,44.2109040147051],[-122.194311058547,44.2109636790292],[-122.197606788746,44.2113336132072],[-122.197697410998,44.2113432573783],[-122.198175079476,44.2113691353547],[-122.19849665655,44.2113669004752],[-122.198577238058,44.2113089462693],[-122.200026146363,44.2111931023034],[-122.200518093151,44.2109714775263],[-122.200840216205,44.2108702034069],[-122.201233282215,44.2107874334721],[-122.201475003092,44.2107891315567],[-122.201555580912,44.2107311752165],[-122.202041254095,44.2106850659638],[-122.20284332248,44.210614163471],[-122.202923898744,44.2105562052519],[-122.203728913949,44.2104988227274],[-122.20380948917,44.2104408656753],[-122.204046815921,44.2104200189094],[-122.204136114657,44.2104116397462],[-122.204374225936,44.2103907977656],[-122.205097220315,44.2103238275349],[-122.205177792715,44.2102658694955],[-122.205504416613,44.2102366396407],[-122.206465455861,44.2101533170258],[-122.206867600036,44.2101516209229],[-122.206948170481,44.2100936616184],[-122.207117678686,44.210054328614],[-122.20743088043,44.2099754818435],[-122.208879745403,44.2099180475118],[-122.209521616583,44.2098909998004],[-122.209606942381,44.2098870913428],[-122.210248814201,44.2098600395488],[-122.210328599985,44.2098020715301],[-122.211051042624,44.2097755748758],[-122.21113558593,44.2097716598717],[-122.214836307627,44.2096307142137],[-122.215480946368,44.2096306623934],[-122.215560807561,44.2096852342587],[-122.21572196348,44.209744867616],[-122.217010571384,44.2099743333725],[-122.217340061064,44.2101431649874],[-122.217815730523,44.2103805266322],[-122.217985790718,44.210417709878],[-122.218379049047,44.2104969443908],[-122.218620771001,44.210498605296],[-122.218701417299,44.2105531794289],[-122.219989183347,44.2106700636953],[-122.220069771761,44.2107291371417],[-122.221357605131,44.2108415039619],[-122.221599328642,44.2108431603753],[-122.222887070403,44.2108429672198],[-122.223289983696,44.2107826962377],[-122.223692034984,44.2106683972577],[-122.224014331408,44.2106705987969],[-122.224416343243,44.2104392524041],[-122.224586623405,44.2103999005142],[-122.224734881011,44.2103693984626],[-122.224979595136,44.2103215488738],[-122.225450693641,44.2101311862229],[-122.225703930148,44.210029372141],[-122.226347626846,44.2097411444687],[-122.226830237373,44.2096273826869],[-122.227713412926,44.2093317719791],[-122.227876821574,44.2092788612842],[-122.228056460106,44.2091810433551],[-122.228198259354,44.2091054782787],[-122.228758397433,44.2089247102484],[-122.228922588783,44.208871802437],[-122.229103005328,44.2087739890057],[-122.229244018802,44.2086984164217],[-122.229968339176,44.208464733867],[-122.230606580043,44.2081719437433],[-122.231094534879,44.2079456577307],[-122.231665377007,44.2076614075318],[-122.232381853376,44.2073061115205],[-122.233428219824,44.2067864730885],[-122.235198356877,44.2064967817576],[-122.235922474196,44.2060919963237],[-122.236324588821,44.2060901953963],[-122.236478770262,44.2060237059306],[-122.23672733538,44.2059173336174],[-122.237122370098,44.2057354166497],[-122.237611844504,44.2055091128291],[-122.237853446664,44.2053351660679],[-122.237853357215,44.2052811446983],[-122.238174708736,44.2050492096442],[-122.239300594938,44.2042374392519],[-122.23930056083,44.2041789166591],[-122.239461587884,44.2040044271576],[-122.239710090994,44.2037179810067],[-122.239863293936,44.2035434388495],[-122.239955463057,44.2034315116672],[-122.240104028166,44.2032524376378],[-122.240426178462,44.203079022951],[-122.240426143236,44.2030204994387],[-122.240988982519,44.2024975598375],[-122.241377150214,44.2016853417805],[-122.241872252933,44.2006442467074],[-122.242056463389,44.2002448226403],[-122.24211275984,44.2001236524569],[-122.242756152752,44.1996597615909],[-122.242756115152,44.1996012398287],[-122.242916279656,44.199431242078],[-122.243751939815,44.1986084882298],[-122.244122589767,44.1986784787026],[-122.245169258102,44.1987934746409],[-122.245813260639,44.1990813578969],[-122.24621619314,44.199196572363],[-122.246537829262,44.199369769837],[-122.247101968794,44.1996030954844],[-122.247504168822,44.1997768238856],[-122.247907210618,44.1999460539226],[-122.24831019749,44.2001197846576],[-122.248793009238,44.2003525640377],[-122.249166721113,44.200553108733],[-122.249437092042,44.2006989479305],[-122.249840087334,44.2008726733044],[-122.250705636046,44.2012745321664],[-122.251190754881,44.2015118180896],[-122.251313088612,44.201611660189],[-122.251392801512,44.2016797090656],[-122.251615798697,44.201861242589],[-122.252026824587,44.2022060703179],[-122.252106755511,44.202319137756],[-122.252106802321,44.202377660452],[-122.252570581954,44.2026116712632],[-122.252911308689,44.2027835900236],[-122.253797026743,44.2030144790836],[-122.255003639506,44.203481547624],[-122.255496053978,44.2037008474306],[-122.255647734085,44.2037693641333],[-122.255668706253,44.2037820232904],[-122.25661278727,44.2043518824917],[-122.257337410692,44.2045816910911],[-122.259655137078,44.204965912322],[-122.260137915343,44.2050815914372],[-122.260556500063,44.2054534467545],[-122.260798032566,44.2059727116325],[-122.261038787076,44.2064919691214],[-122.261235909197,44.2071865100229],[-122.261226523389,44.2072494723466],[-122.261119361885,44.2079420405739],[-122.261118863715,44.2089279111262],[-122.261006502848,44.2098500313083],[-122.260999461816,44.2099130105536],[-122.260957611911,44.2102593703176],[-122.260700861614,44.2107123764008],[-122.260488138615,44.2109585907458],[-122.260393708265,44.2110660181444],[-122.25942672612,44.2125137886268],[-122.259265899161,44.2128638759915],[-122.259152852251,44.2130837245999],[-122.258943461401,44.2135010219366],[-122.258863101195,44.213671563149],[-122.258782577475,44.2137295620615],[-122.25875463085,44.2139004441739],[-122.258743676618,44.213963396942],[-122.258620882155,44.2147143828289],[-122.258452330494,44.2151184403656],[-122.258378951019,44.2152935280779],[-122.258137744787,44.215814155207],[-122.258021504813,44.2159754604896],[-122.257721400968,44.2163876627472],[-122.257439087769,44.2167762718513],[-122.257171308657,44.2171448662196],[-122.257098803484,44.2172101869902],[-122.256526382787,44.217725880352],[-122.256274845249,44.2182950809586],[-122.25622685299,44.2184036822073],[-122.256049692792,44.2188106887293],[-122.256043183679,44.2188256428714],[-122.255156780048,44.2196931829758],[-122.254673967266,44.2204463119679],[-122.254567102588,44.2205446500931],[-122.254432459908,44.2206743187056],[-122.253948547228,44.2211393296943],[-122.253776628399,44.2212462444149],[-122.253730128104,44.2212729500544],[-122.252821674183,44.2218342110253],[-122.252638186005,44.2219275427373],[-122.252257789176,44.2221231232619],[-122.251452225394,44.2225274900254],[-122.251193289822,44.2225843106342],[-122.250996896794,44.2225830167724],[-122.250756044155,44.2227569957207],[-122.250594998383,44.2229315004503],[-122.250435481817,44.2239163195936],[-122.25028262026,44.2242484359861],[-122.250194949559,44.224436929954],[-122.249953527765,44.2249035124241],[-122.249873035857,44.2249570017756],[-122.249873125749,44.2250740457844],[-122.249793682629,44.2254786749043],[-122.249311206378,44.2258851423101],[-122.248487045282,44.2263298662335],[-122.248044286695,44.2265025036441],[-122.247299283435,44.2268126894555],[-122.246807376671,44.2270345163007],[-122.246655500177,44.2271010355517],[-122.246163587388,44.2273228577709],[-122.246011651984,44.2273938764369],[-122.245769942282,44.2275093178239],[-122.245690125397,44.2275087880893],[-122.245563727137,44.2276024844057],[-122.245127004443,44.2279147033033],[-122.244885330249,44.2280886633671],[-122.243758941341,44.2287249165327],[-122.243176270587,44.229004643449],[-122.242793557445,44.2291911665102],[-122.242712958354,44.2291906286091],[-122.240540973927,44.2308687709402],[-122.23999031826,44.2313962900863],[-122.23995223907,44.2314365507745],[-122.239310115891,44.2318329037019],[-122.238608075238,44.2322018442691],[-122.238283467626,44.2323707322438],[-122.238230687476,44.2323973887396],[-122.238049430581,44.2324952123624],[-122.237724821021,44.2326640987266],[-122.237478432724,44.232774988766],[-122.237080866935,44.2329568891399],[-122.236588927857,44.2331741681306],[-122.23643696595,44.233245174701],[-122.236356361421,44.2332446340768],[-122.234963298705,44.2341536082727],[-122.234666554528,44.2343451848036],[-122.234585948555,44.2343446411192],[-122.234328738179,44.2345049698524],[-122.234282940385,44.2345361728727],[-122.2327348883,44.2355025990629],[-122.232574507409,44.2356185594855],[-122.232171600941,44.2359084477601],[-122.231206221292,44.2367212289247],[-122.230804081949,44.2370111156768],[-122.230160178921,44.2374749316876],[-122.22871078153,44.2377036954493],[-122.226536428971,44.2378239697522],[-122.226376010037,44.23788140004],[-122.225731959362,44.2380525817156],[-122.225163099379,44.238219767353],[-122.224449877713,44.2384129776408],[-122.224282528614,44.238461353919],[-122.223874944328,44.2386251338624],[-122.223719096806,44.238691594578],[-122.223378994278,44.238842328454],[-122.223075068694,44.2389798036109],[-122.22299445535,44.2389792525942],[-122.222342719696,44.2394969897121],[-122.222190075956,44.2396174905881],[-122.222190322575,44.2402567299897],[-122.221868803697,44.2406011589503],[-122.221547430361,44.2414722831381],[-122.221466919588,44.2416427961325],[-122.221145486344,44.2423383536031],[-122.220823907035,44.2427458026004],[-122.220018626348,44.24320845282],[-122.219858639587,44.2443642857891],[-122.219792075307,44.2444853739122],[-122.219698253052,44.2446557928459],[-122.219617646103,44.2447137605356],[-122.217845399627,44.2448321283656],[-122.217362503527,44.2450628924024],[-122.216637750515,44.2453505080642],[-122.21639511419,44.2454073558819],[-122.215349299991,44.2456432325834],[-122.214705152846,44.2459313932111],[-122.214222218214,44.2460450988885],[-122.213896000313,44.2460878599538],[-122.212853102993,44.2462201946205],[-122.211644118469,44.2461848055232],[-122.210839695121,44.2461612177037],[-122.208987559691,44.246454457366],[-122.208504688595,44.2469147683861],[-122.20826362037,44.2473227403913],[-122.207297004317,44.2482478495636],[-122.207217161383,44.2482472918531],[-122.207055913125,44.2483632110346],[-122.20625044535,44.2487672413579],[-122.205535588787,44.2490683606533],[-122.203351554077,44.2493501850654],[-122.202626679843,44.249637711613],[-122.202546049424,44.2496956670313],[-122.202384795518,44.2496945357623],[-122.201984717411,44.2498717951652],[-122.201821112254,44.2498706448733],[-122.201901785061,44.2499837507866],[-122.201841311794,44.2501138712599],[-122.201801686096,44.2501496058322],[-122.200693749947,44.2511456651083],[-122.200372009423,44.2523002992444],[-122.199888895446,44.2529406207418],[-122.198600199129,44.2540389229767],[-122.197956604606,44.2545025454584],[-122.197553372178,44.2547922992584],[-122.194492648274,44.2568188567835],[-122.194412011133,44.256818284517],[-122.193365065549,44.2576301411792],[-122.193365109954,44.2576841599609],[-122.193203801241,44.2578000553478],[-122.193060313327,44.2579295819146],[-122.193020736099,44.2579608121916],[-122.192877248642,44.2580903385277],[-122.192479430125,44.258438634269],[-122.192325083772,44.2586175982532],[-122.192076093604,44.2589039286623],[-122.191927223754,44.2590829326291],[-122.191834927433,44.2591903129688],[-122.191680577113,44.2593692778298],[-122.191431579371,44.2596556058402],[-122.19143234444,44.2597141312418],[-122.189578785335,44.2608128130674],[-122.18948578196,44.2608571658483],[-122.18933760085,44.26092813439],[-122.189014968202,44.2611013933353],[-122.188934325304,44.2611008180588],[-122.187484746414,44.2620267878717],[-122.185792425854,44.2626088843658],[-122.184664652979,44.2634741017195],[-122.183697371651,44.2641694010627],[-122.183536809182,44.264285287985],[-122.182730906064,44.2647476580963],[-122.182640960872,44.2647965277824],[-122.181763603656,44.2652718824991],[-122.18176435787,44.2653304078272],[-122.181540996736,44.2655133632434],[-122.181500625358,44.2655445828925],[-122.18120272429,44.2657945246766],[-122.180716339329,44.2661961597201],[-122.18065984108,44.2663172940361],[-122.180232817717,44.267237030674],[-122.17894347508,44.2680515088842],[-122.178782138918,44.2681088644799],[-122.17821437823,44.2683343394415],[-122.178056895417,44.2683962241623],[-122.177648901989,44.2685643313473],[-122.177492982765,44.2686262256441],[-122.174672512844,44.2696681514774],[-122.174591796778,44.2696720670704],[-122.172980354463,44.2708847756962],[-122.17064263131,44.2724477866255],[-122.17055266439,44.2724966474605],[-122.169997911846,44.2727942029605],[-122.169917255851,44.2727936141558],[-122.168872841752,44.273492726769],[-122.168789071701,44.2735461328203],[-122.168750683268,44.2736583898101],[-122.168546663888,44.27424209785],[-122.168466619404,44.2744755926874],[-122.168385918956,44.2745335232047],[-122.168465940713,44.2756910012267],[-122.167337771252,44.2763264656407],[-122.166370360992,44.2765579586852],[-122.164032964266,44.2769639436842],[-122.163388373424,44.2769637051736],[-122.163307663357,44.2770216311036],[-122.162743736084,44.2770219824842],[-122.162425954307,44.2769521190846],[-122.161695954301,44.2767891862777],[-122.16121200619,44.276673079237],[-122.16113217634,44.2766139704902],[-122.159601048794,44.2764991301647],[-122.159448735688,44.276525014972],[-122.159278345374,44.2765552662476],[-122.15919763313,44.2766131892597],[-122.158552994576,44.2766714438108],[-122.158472280227,44.2767293653929],[-122.158310952949,44.2767281704312],[-122.157746781507,44.2770751135113],[-122.157487596876,44.2772352487984],[-122.157440941011,44.2772664144177],[-122.157182602195,44.2774220528228],[-122.155651247735,44.2775412388529],[-122.153717058939,44.2770767087716],[-122.153636453021,44.2770175890425],[-122.151218407107,44.2773056718075],[-122.150815688444,44.2774242070716],[-122.15049748842,44.2776018929102],[-122.148867825947,44.2785080195129],[-122.14881724886,44.2785391523814],[-122.148638825507,44.2786368507282],[-122.147106432011,44.2799083055174],[-122.146940271698,44.2800240997314],[-122.146065476408,44.2806117367882],[-122.14598246016,44.2806651316686],[-122.145942127351,44.280691838324],[-122.145816361967,44.2807764240757],[-122.14533750837,44.2809033700029],[-122.14509772122,44.2809645896558],[-122.144929467164,44.2810083400393],[-122.14428470268,44.2811250318927],[-122.144203967036,44.2811829440791],[-122.143720671957,44.2811838092018],[-122.143510579512,44.2810876949464],[-122.143416402991,44.2810464714664],[-122.143075586904,44.2808908517641],[-122.14282261958,44.2807268899844],[-122.142777586037,44.2806995420104],[-122.142270093535,44.2803716048589],[-122.142190208396,44.2803710031583],[-122.142047998172,44.2802934038485],[-122.14154514202,44.2800240189415]]]},"properties":{"OBJECTID":1,"FP_NAME":"H.J. Andrew Experimental Forest","GlobalID":"4488ed45-2438-4493-8da6-7f1997648d0c","CreationDate":1554477774367,"Creator":"burnettj","EditDate":1554477774367,"Editor":"burnettj","Shape__Area":63653634.785400391,"Shape__Length":38446.295634176844}},{"type":"Feature","id":2,"geometry":{"type":"Polygon","coordinates":[[[-122.271390893313,44.2174366359618],[-122.27138053537,44.2174323744295],[-122.269551500702,44.2158011534735],[-122.270273897932,44.2150315618662],[-122.270735635485,44.213903762658],[-122.271132600796,44.213439014664],[-122.271894212624,44.2137746050906],[-122.272776314135,44.2143190347517],[-122.272869643532,44.2143494193877],[-122.2733152633,44.2144944940115],[-122.274007596726,44.2147198838714],[-122.274069747225,44.2148706179362],[-122.274953168457,44.2152254750869],[-122.27565335932,44.21550672254],[-122.275999427383,44.2160896293779],[-122.275619854065,44.2166658831981],[-122.274512291954,44.2172103313713],[-122.273327773836,44.2174487629022],[-122.272567721823,44.2179208895167],[-122.271390893313,44.2174366359618]]]},"properties":{"OBJECTID":2,"FP_NAME":"Watershed 10","GlobalID":"f0abd50c-9511-4f48-b60e-d78675494163","CreationDate":1554477774367,"Creator":"burnettj","EditDate":1554477774367,"Editor":"burnettj","Shape__Area":142047.14233398438,"Shape__Length":1497.788161125512}},{"type":"Feature","id":3,"geometry":{"type":"Polygon","coordinates":[[[-122.252570581954,44.2026116712632],[-122.252724932116,44.2025482814182],[-122.252707025132,44.2025391602079],[-122.253047558209,44.2024603624989],[-122.253535948677,44.2023780293675],[-122.253812224097,44.2023033101461],[-122.254011677095,44.2022370899679],[-122.254379246916,44.2021179505845],[-122.254548118533,44.2020650337049],[-122.254808636103,44.2019992115042],[-122.255099633815,44.2019380899537],[-122.255360545869,44.201840757975],[-122.255652036829,44.2017301181017],[-122.255866613781,44.2016549918551],[-122.256189031575,44.2015130418735],[-122.256527157868,44.2013756947999],[-122.256726602218,44.2013094716122],[-122.256972260945,44.2011805228961],[-122.257216848995,44.2011371004006],[-122.257630661591,44.2010722702211],[-122.257828737495,44.2010555545463],[-122.258012852733,44.2010342435634],[-122.258242433407,44.2009997254612],[-122.25859371007,44.2010020112821],[-122.258897841782,44.2010715157501],[-122.259002779951,44.201247764612],[-122.258923726549,44.2014453269206],[-122.258815562165,44.201588677674],[-122.258614258983,44.2017944469621],[-122.258412514855,44.2020452297674],[-122.25827334331,44.2021658698726],[-122.258149533003,44.2023091183851],[-122.258024657378,44.2025378917333],[-122.257916300469,44.2026362254193],[-122.257609115936,44.2028007871666],[-122.257301520637,44.2029383368114],[-122.257132213412,44.203036270755],[-122.256948000051,44.20312510342],[-122.256654527734,44.2033842886238],[-122.256531104716,44.2034960276888],[-122.256408017258,44.2035807557037],[-122.256147381141,44.2036555839261],[-122.255922144151,44.2037216389706],[-122.255668706253,44.2037820232904],[-122.255647734085,44.2037693641333],[-122.255496053978,44.2037008474306],[-122.255003639506,44.203481547624],[-122.253797026743,44.2030144790836],[-122.252911308689,44.2027835900236],[-122.252570581954,44.2026116712632]]]},"properties":{"OBJECTID":3,"FP_NAME":"Watershed 11","GlobalID":"8bc4ac1a-c55d-4bf4-9130-09f016b6d5b6","CreationDate":1554477774367,"Creator":"burnettj","EditDate":1554477774367,"Editor":"burnettj","Shape__Area":74968.39794921875,"Shape__Length":1253.0404195223989}},{"type":"Feature","id":4,"geometry":{"type":"Polygon","coordinates":[[[-122.256049692792,44.2188106887293],[-122.25622685299,44.2184036822073],[-122.256274845249,44.2182950809586],[-122.256526382787,44.217725880352],[-122.257098803484,44.2172101869902],[-122.257171308657,44.2171448662196],[-122.257439087769,44.2167762718513],[-122.257583887884,44.2167206840775],[-122.257876836023,44.2166910325036],[-122.258236638674,44.216755119315],[-122.258461456897,44.2166560786329],[-122.258612633811,44.2166843016172],[-122.25883735272,44.2168900979537],[-122.259061904952,44.2171095091168],[-122.259574612241,44.2170038639499],[-122.260049114855,44.2169252134284],[-122.260428060133,44.2169140529035],[-122.260919968976,44.2169581081852],[-122.260980286581,44.2169715547847],[-122.26110884669,44.2170002034446],[-122.261332232059,44.2173149576039],[-122.261381357959,44.2175925099909],[-122.261371230965,44.2176726706282],[-122.261311568696,44.2181449309795],[-122.261277527473,44.2184143720916],[-122.26112814018,44.2184987548218],[-122.260708081941,44.2185924318899],[-122.260656679904,44.2186038978305],[-122.260197383408,44.2187106734109],[-122.259816899499,44.2188444207835],[-122.259511668985,44.2190195280914],[-122.259015672942,44.2193023632271],[-122.258823560082,44.2195190721413],[-122.258649875517,44.2197767592764],[-122.258580183239,44.2200617227223],[-122.258380408058,44.2199676953636],[-122.258182042063,44.2199545142037],[-122.257885149716,44.2198811864008],[-122.257637298125,44.2198557752436],[-122.257355621093,44.2198896355],[-122.257057540635,44.2199114898271],[-122.256792851,44.2199097644258],[-122.256544254965,44.2199438361047],[-122.256328752873,44.2199781226951],[-122.256130537167,44.2199530395003],[-122.256064808294,44.2199169104064],[-122.255921489068,44.2199232631901],[-122.255768793468,44.219882669052],[-122.255599664651,44.2198876432548],[-122.255582625944,44.2196750373941],[-122.255736870276,44.2194580899211],[-122.256005262633,44.2192010177775],[-122.256047738027,44.2188334998642],[-122.256049692792,44.2188106887293]]]},"properties":{"OBJECTID":4,"FP_NAME":"Watershed 9","GlobalID":"db87d3f3-deb6-4e3e-a1d0-8ebbe7298dda","CreationDate":1554477774367,"Creator":"burnettj","EditDate":1554477774367,"Editor":"burnettj","Shape__Area":110304.923828125,"Shape__Length":1421.2127602163425}}]}
